NORAD_CAT_ID,OBJECT_NAME,OBJECT_TYPE,EPOCH,MEAN_MOTION,ECCENTRICITY,INCLINATION,RA_OF_ASC_NODE,ARG_OF_PERICENTER,MEAN_ANOMALY,BSTAR,MEAN_MOTION_DOT,MEAN_MOTION_DDOT,TLE_LINE0,TLE_LINE1,TLE_LINE2,SEMIMAJOR_AXIS,PERIOD,APOGEE,PERIGEE,DECAYED
53174.0,STARLINK-4205,PAYLOAD,2023-02-23 15:24:23,15.08847505,0.0001309,53.2152,117.3198,104.2976,255.8161,3.321e-05,2.41e-06,0.0,0 STARLINK-4205,1 53174U 22083AU  23054.64193725  .00000241  00000-0  33210-4 0  9996,2 53174  53.2152 117.3198 0001309 104.2976 255.8161 15.08847505 33638,6917.857,95.437,540.628,538.817,0.0
53174.0,STARLINK-4205,PAYLOAD,2023-02-24 10:28:59,15.08861757,0.0001475,53.2146,113.7528,84.2251,275.8909,0.00024341,3.59e-05,0.0,0 STARLINK-4205,1 53174U 22083AU  23055.43679969  .00003590  00000-0  24341-3 0  9997,2 53174  53.2146 113.7528 0001475  84.2251 275.8909 15.08861757 34396,6917.814,95.436,540.699,538.659,0.0
53174.0,STARLINK-4205,PAYLOAD,2023-02-24 13:39:45,15.08866815,0.0001584,53.2162,113.158,86.7245,273.3929,0.00028145,4.197e-05,0.0,0 STARLINK-4205,1 53174U 22083AU  23055.56927375  .00004197  00000-0  28145-3 0  9998,2 53174  53.2162 113.1580 0001584  86.7245 273.3929 15.08866815 33773,6917.798,95.436,540.759,538.568,0.0
53174.0,STARLINK-4205,PAYLOAD,2023-02-25 03:58:16,15.0882065,0.0001302,53.215,110.4787,108.8182,251.2952,-9.117e-05,-1.738e-05,0.0,0 STARLINK-4205,1 53174U 22083AU  23056.16547404 -.00001738  00000-0 -91170-4 0  9995,2 53174  53.2150 110.4787 0001302 108.8182 251.2952 15.08820650 34503,6917.94,95.439,540.705,538.904,0.0
53174.0,STARLINK-4205,PAYLOAD,2023-02-25 13:30:36,15.08820813,0.0001169,53.2146,108.6916,104.0773,256.0349,-0.00015468,-2.747e-05,0.0,0 STARLINK-4205,1 53174U 22083AU  23056.56291968 -.00002747  00000-0 -15468-3 0  9996,2 53174  53.2146 108.6916 0001169 104.0773 256.0349 15.08820813 33925,6917.939,95.439,540.613,538.995,0.0
53174.0,STARLINK-4205,PAYLOAD,2023-02-25 19:52:08,15.08828691,0.0001055,53.2151,107.5091,125.7713,234.3378,-0.00012744,-2.315e-05,0.0,0 STARLINK-4205,1 53174U 22083AU  23056.82787504 -.00002315  00000-0 -12744-3 0  9996,2 53174  53.2151 107.5091 0001055 125.7713 234.3378 15.08828691 34600,6917.915,95.438,540.51,539.05,0.0
53174.0,STARLINK-4205,PAYLOAD,2023-02-26 08:35:12,15.08850421,0.000161,53.2163,105.1294,99.1581,260.9594,-6.2363e-05,-1.281e-05,0.0,0 STARLINK-4205,1 53174U 22083AU  23057.35778295 -.00001281  00000-0 -62363-4 0  9996,2 53174  53.2163 105.1294 0001610  99.1581 260.9594 15.08850421 34685,6917.849,95.437,540.827,538.6,0.0
53174.0,STARLINK-4205,PAYLOAD,2023-02-26 11:45:58,15.08856792,0.0001271,53.2147,104.5322,90.0996,270.0141,-1.6453e-05,-5.5e-06,0.0,0 STARLINK-4205,1 53174U 22083AU  23057.49025748 -.00000550  00000-0 -16453-4 0  9996,2 53174  53.2147 104.5322 0001271  90.0996 270.0141 15.08856792 34064,6917.829,95.436,540.573,538.815,0.0
53174.0,STARLINK-4205,PAYLOAD,2023-02-26 19:42:54,15.08851719,0.0001527,53.2144,103.0446,66.2307,293.8845,-0.00010856,-2.016e-05,0.0,0 STARLINK-4205,1 53174U 22083AU  23057.82146042 -.00002016  00000-0 -10856-3 0  9993,2 53174  53.2144 103.0446 0001527  66.2307 293.8845 15.08851719 34111,6917.845,95.437,540.766,538.653,0.0
53174.0,STARLINK-4205,PAYLOAD,2023-02-27 02:04:27,15.08825797,0.0001382,53.2152,101.8594,111.0725,249.0415,0.0002123,3.091e-05,0.0,0 STARLINK-4205,1 53174U 22083AU  23058.08643325  .00003091  00000-0  21230-3 0  9998,2 53174  53.2152 101.8594 0001382 111.0725 249.0415 15.08825797 34799,6917.924,95.438,540.745,538.833,0.0
53174.0,STARLINK-4205,PAYLOAD,2023-02-27 11:36:47,15.08827679,0.0001431,53.2153,100.073,95.9567,264.1588,0.00020984,3.052e-05,0.0,0 STARLINK-4205,1 53174U 22083AU  23058.48387778  .00003052  00000-0  20984-3 0  9991,2 53174  53.2153 100.0730 0001431  95.9567 264.1588 15.08827679 34219,6917.918,95.438,540.773,538.793,0.0
53174.0,STARLINK-4205,PAYLOAD,2023-02-27 19:33:42,15.08838062,0.0001216,53.2146,98.5864,105.6488,254.4638,0.00024203,3.566e-05,0.0,0 STARLINK-4205,1 53174U 22083AU  23058.81507102  .00003566  00000-0  24203-3 0  9991,2 53174  53.2146  98.5864 0001216 105.6488 254.4638 15.08838062 34263,6917.886,95.438,540.593,538.91,0.0
53174.0,STARLINK-4205,PAYLOAD,2023-02-28 11:27:31,15.08886269,0.0001468,53.2145,95.6112,111.3886,248.7263,0.00076882,0.00011984,0.0,0 STARLINK-4205,1 53174U 22083AU  23059.47744694  .00011984  00000-0  76882-3 0  9996,2 53174  53.2145  95.6112 0001468 111.3886 248.7263 15.08886269 35006,6917.739,95.435,540.619,538.588,0.0
53174.0,STARLINK-4205,PAYLOAD,2023-02-28 19:24:26,15.08878598,0.0001687,53.2142,94.1236,76.3127,283.8053,0.00051852,7.982e-05,0.0,0 STARLINK-4205,1 53174U 22083AU  23059.80864447  .00007982  00000-0  51852-3 0  9995,2 53174  53.2142  94.1236 0001687  76.3127 283.8053 15.08878598 34412,6917.762,95.435,540.794,538.46,0.0
53174.0,STARLINK-4205,PAYLOAD,2023-03-01 01:46:01,15.0882261,0.0001642,53.2145,92.9366,84.7296,275.3883,-0.00052704,-8.662e-05,0.0,0 STARLINK-4205,1 53174U 22083AU  23060.07362432 -.00008662  00000-0 -52704-3 0  9998,2 53174  53.2145  92.9366 0001642  84.7296 275.3883 15.08822610 35092,6917.934,95.439,540.934,538.663,0.0
53174.0,STARLINK-4205,PAYLOAD,2023-03-01 19:15:16,15.08817741,0.0001155,53.2146,89.6642,93.3667,266.7457,-0.00041935,-6.951e-05,0.0,0 STARLINK-4205,1 53174U 22083AU  23060.80227165 -.00006951  00000-0 -41935-3 0  9995,2 53174  53.2146  89.6642 0001155  93.3667 266.7457 15.08817741 34561,6917.948,95.439,540.612,539.014,0.0
53174.0,STARLINK-4205,PAYLOAD,2023-03-02 19:06:04,15.08847683,0.0001037,53.2141,85.2035,93.8522,266.2589,0.0012957,0.00020398,0.0,0 STARLINK-4205,1 53174U 22083AU  23061.79588412  .00020398  00000-0  12957-2 0  9999,2 53174  53.2141  85.2035 0001037  93.8522 266.2589 15.08847683 35355,6917.857,95.437,540.439,539.005,0.0
53174.0,STARLINK-4205,PAYLOAD,2023-03-03 12:35:17,15.08893252,0.0001115,53.2141,81.933,87.2258,272.8862,0.0019795,0.00031402,0.0,0 STARLINK-4205,1 53174U 22083AU  23062.52450907  .00031402  00000-0  19795-2 0  9993,2 53174  53.2141  81.9330 0001115  87.2258 272.8862 15.08893252 35468,6917.718,95.434,540.354,538.811,0.0
53174.0,STARLINK-4205,PAYLOAD,2023-03-04 01:18:22,15.08855872,0.0001561,53.2143,79.5536,87.8562,272.2609,0.0010362,0.00016249,0.0,0 STARLINK-4205,1 53174U 22083AU  23063.05443279  .00016249  00000-0  10362-2 0  9999,2 53174  53.2143  79.5536 0001561  87.8562 272.2609 15.08855872 35548,6917.832,95.437,540.777,538.617,0.0
53174.0,STARLINK-4205,PAYLOAD,2023-03-04 12:26:04,15.0887104,9.6e-05,53.2142,77.472,112.893,247.2164,0.0020498,0.00032513,0.0,0 STARLINK-4205,1 53174U 22083AU  23063.51810597  .00032513  00000-0  20498-2 0  9994,2 53174  53.2142  77.4720 0000960 112.8930 247.2164 15.08871040 34978,6917.786,95.436,540.315,538.986,0.0
53174.0,STARLINK-4205,PAYLOAD,2023-03-05 10:41:29,15.08839979,9.75e-05,53.2144,73.3088,114.3205,245.7889,0.0015963,0.00025208,0.0,0 STARLINK-4205,1 53174U 22083AU  23064.44547775  .00025208  00000-0  15963-2 0  9996,2 53174  53.2144  73.3088 0000975 114.3205 245.7889 15.08839979 35759,6917.88,95.438,540.42,539.071,0.0
53174.0,STARLINK-4205,PAYLOAD,2023-03-05 13:52:15,15.08842605,9.95e-05,53.2143,72.7132,116.3091,243.8004,0.0013469,0.00021214,0.0,0 STARLINK-4205,1 53174U 22083AU  23064.57795773  .00021214  00000-0  13469-2 0  9995,2 53174  53.2143  72.7132 0000995 116.3091 243.8004 15.08842605 35138,6917.872,95.437,540.426,539.049,0.0
53174.0,STARLINK-4205,PAYLOAD,2023-03-05 17:03:01,15.08847816,9.92e-05,53.2146,72.1184,114.7822,245.3273,0.0013186,0.00020764,0.0,0 STARLINK-4205,1 53174U 22083AU  23064.71043724  .00020764  00000-0  13186-2 0  9998,2 53174  53.2146  72.1184 0000992 114.7822 245.3273 15.08847816 35159,6917.856,95.437,540.408,539.035,0.0
53174.0,STARLINK-4205,PAYLOAD,2023-03-06 00:59:57,15.08841142,7.06e-05,53.2157,70.6319,89.6771,270.4302,0.0019919,0.00031556,0.0,0 STARLINK-4205,1 53174U 22083AU  23065.04163988  .00031556  00000-0  19919-2 0  9991,2 53174  53.2157  70.6319 0000706  89.6771 270.4302 15.08841142 35844,6917.877,95.437,540.23,539.253,0.0
53174.0,STARLINK-4205,PAYLOAD,2023-03-06 16:53:48,15.08821829,0.0001371,53.2156,67.6558,115.4422,244.6712,-0.00056347,-9.24e-05,0.0,0 STARLINK-4205,1 53174U 22083AU  23065.70403808 -.00009240  00000-0 -56347-3 0  9996,2 53174  53.2156  67.6558 0001371 115.4422 244.6712 15.08821829 35943,6917.936,95.439,540.749,538.852,0.0
53174.0,STARLINK-4205,PAYLOAD,2023-03-07 04:01:30,15.08827106,5.07e-05,53.2157,65.5754,138.1097,221.9934,-0.00025926,-4.41e-05,0.0,0 STARLINK-4205,1 53174U 22083AU  23066.16771753 -.00004410  00000-0 -25926-3 0  9997,2 53174  53.2157  65.5754 0000507 138.1097 221.9934 15.08827106 36016,6917.92,95.438,540.136,539.434,0.0
53174.0,STARLINK-4205,PAYLOAD,2023-03-07 08:47:40,15.08840996,0.0001462,53.2144,64.6825,92.17,267.9459,0.00071137,0.00011052,0.0,0 STARLINK-4205,1 53174U 22083AU  23066.36644076  .00011052  00000-0  71137-3 0  9999,2 53174  53.2144  64.6825 0001462  92.1700 267.9459 15.08840996 36049,6917.877,95.437,540.754,538.731,0.0
53174.0,STARLINK-4205,PAYLOAD,2023-03-07 11:58:26,15.08855138,0.0001328,53.2151,64.088,94.4647,265.6497,0.0012512,0.00019689,0.0,0 STARLINK-4205,1 53174U 22083AU  23066.49891813  .00019689  00000-0  12512-2 0  9991,2 53174  53.2151  64.0880 0001328  94.4647 265.6497 15.08855138 36061,6917.834,95.437,540.618,538.78,0.0
53174.0,STARLINK-4205,PAYLOAD,2023-03-08 08:38:27,15.08852932,0.0001368,53.2149,60.2223,84.9149,275.1999,0.0016938,0.00026781,0.0,0 STARLINK-4205,1 53174U 22083AU  23067.36004428  .00026781  00000-0  16938-2 0  9993,2 53174  53.2149  60.2223 0001368  84.9149 275.1999 15.08852932 36198,6917.841,95.437,540.652,538.76,0.0
53174.0,STARLINK-4205,PAYLOAD,2023-03-08 16:35:23,15.08843433,0.0001396,53.2145,58.7359,95.6976,264.4176,0.00098969,0.00015499,0.0,0 STARLINK-4205,1 53174U 22083AU  23067.69124510  .00015499  00000-0  98969-3 0  9993,2 53174  53.2145  58.7359 0001396  95.6976 264.4176 15.08843433 36244,6917.87,95.437,540.701,538.769,0.0
